[{"OBJECT_NAME":"BEIDOU-3 IGSO-3","OBJECT_ID":"2019-073A","EPOCH":"2026-03-10T23:36:11.529792","MEAN_MOTION":1.00267242,"ECCENTRICITY":0.00407281,"INCLINATION":54.9673,"RA_OF_ASC_NODE":281.9576,"ARG_OF_PERICENTER":188.7089,"MEAN_ANOMALY":171.2538,"EPHEMERIS_TYPE":0,"CLASSIFICATION_TYPE":"U","NORAD_CAT_ID":44709,"ELEMENT_SET_NO":999,"REV_AT_EPOCH":2347,"BSTAR":0,"MEAN_MOTION_DOT":-1.43e-6,"MEAN_MOTION_DDOT":0},{"OBJECT_NAME":"TIBA-1","OBJECT_ID":"2019-080A","EPOCH":"2026-03-14T16:51:36.900288","MEAN_MOTION":1.00273534,"ECCENTRICITY":0.00021158,"INCLINATION":0.059,"RA_OF_ASC_NODE":7.7578,"ARG_OF_PERICENTER":346.4267,"MEAN_ANOMALY":106.5148,"EPHEMERIS_TYPE":0,"CLASSIFICATION_TYPE":"U","NORAD_CAT_ID":44800,"ELEMENT_SET_NO":999,"REV_AT_EPOCH":2311,"BSTAR":0,"MEAN_MOTION_DOT":1.55e-6,"MEAN_MOTION_DDOT":0},{"OBJECT_NAME":"INMARSAT GX5","OBJECT_ID":"2019-080B","EPOCH":"2026-03-14T21:46:38.692992","MEAN_MOTION":1.00271039,"ECCENTRICITY":0.00021409,"INCLINATION":0.0521,"RA_OF_ASC_NODE":353.3983,"ARG_OF_PERICENTER":9.3124,"MEAN_ANOMALY":147.4653,"EPHEMERIS_TYPE":0,"CLASSIFICATION_TYPE":"U","NORAD_CAT_ID":44801,"ELEMENT_SET_NO":999,"REV_AT_EPOCH":584,"BSTAR":0,"MEAN_MOTION_DOT":7.4e-7,"MEAN_MOTION_DDOT":0},{"OBJECT_NAME":"JCSAT-18 (KACIFIC 1)","OBJECT_ID":"2019-091A","EPOCH":"2026-03-14T11:15:38.728800","MEAN_MOTION":1.0027107,"ECCENTRICITY":3.573e-5,"INCLINATION":0.0408,"RA_OF_ASC_NODE":315.9022,"ARG_OF_PERICENTER":112.322,"MEAN_ANOMALY":62.759,"EPHEMERIS_TYPE":0,"CLASSIFICATION_TYPE":"U","NORAD_CAT_ID":44868,"ELEMENT_SET_NO":999,"REV_AT_EPOCH":2306,"BSTAR":0,"MEAN_MOTION_DOT":-2.02e-6,"MEAN_MOTION_DDOT":0},{"OBJECT_NAME":"ELEKTRO-L 3","OBJECT_ID":"2019-095A","EPOCH":"2026-03-13T14:02:37.157856","MEAN_MOTION":1.00270722,"ECCENTRICITY":0.00015083,"INCLINATION":0.038,"RA_OF_ASC_NODE":340.0026,"ARG_OF_PERICENTER":9.4736,"MEAN_ANOMALY":108.2976,"EPHEMERIS_TYPE":0,"CLASSIFICATION_TYPE":"U","NORAD_CAT_ID":44903,"ELEMENT_SET_NO":999,"REV_AT_EPOCH":2275,"BSTAR":0,"MEAN_MOTION_DOT":-9.6e-7,"MEAN_MOTION_DDOT":0},{"OBJECT_NAME":"SHIJIAN-20 (SJ-20)","OBJECT_ID":"2019-097A","EPOCH":"2026-03-12T20:33:00.115776","MEAN_MOTION":1.00082407,"ECCENTRICITY":0.0001536,"INCLINATION":4.6699,"RA_OF_ASC_NODE":76.2395,"ARG_OF_PERICENTER":16.315,"MEAN_ANOMALY":96.486,"EPHEMERIS_TYPE":0,"CLASSIFICATION_TYPE":"U","NORAD_CAT_ID":44910,"ELEMENT_SET_NO":999,"REV_AT_EPOCH":2273,"BSTAR":0,"MEAN_MOTION_DOT":-2.0e-8,"MEAN_MOTION_DDOT":0},{"OBJECT_NAME":"TJS-5","OBJECT_ID":"2020-002A","EPOCH":"2026-03-12T20:07:21.865728","MEAN_MOTION":1.00268883,"ECCENTRICITY":0.0004599,"INCLINATION":0.2588,"RA_OF_ASC_NODE":269.665,"ARG_OF_PERICENTER":128.5651,"MEAN_ANOMALY":181.5791,"EPHEMERIS_TYPE":0,"CLASSIFICATION_TYPE":"U","NORAD_CAT_ID":44978,"ELEMENT_SET_NO":999,"REV_AT_EPOCH":2273,"BSTAR":0,"MEAN_MOTION_DOT":-3.42e-6,"MEAN_MOTION_DDOT":0},{"OBJECT_NAME":"GSAT-30","OBJECT_ID":"2020-005A","EPOCH":"2026-03-14T22:35:47.038560","MEAN_MOTION":1.0027143,"ECCENTRICITY":0.00012673,"INCLINATION":0.0141,"RA_OF_ASC_NODE":127.3759,"ARG_OF_PERICENTER":305.7819,"MEAN_ANOMALY":161.3217,"EPHEMERIS_TYPE":0,"CLASSIFICATION_TYPE":"U","NORAD_CAT_ID":45026,"ELEMENT_SET_NO":999,"REV_AT_EPOCH":2256,"BSTAR":0,"MEAN_MOTION_DOT":-1.65e-6,"MEAN_MOTION_DDOT":0},{"OBJECT_NAME":"EUTELSAT KONNECT","OBJECT_ID":"2020-005B","EPOCH":"2026-03-14T08:32:38.740416","MEAN_MOTION":1.00272524,"ECCENTRICITY":0.00010466,"INCLINATION":0.0668,"RA_OF_ASC_NODE":97.4929,"ARG_OF_PERICENTER":221.3319,"MEAN_ANOMALY":348.5168,"EPHEMERIS_TYPE":0,"CLASSIFICATION_TYPE":"U","NORAD_CAT_ID":45027,"ELEMENT_SET_NO":999,"REV_AT_EPOCH":2338,"BSTAR":0,"MEAN_MOTION_DOT":4.9e-7,"MEAN_MOTION_DDOT":0},{"OBJECT_NAME":"JCSAT-17","OBJECT_ID":"2020-013A","EPOCH":"2026-03-14T17:42:48.661344","MEAN_MOTION":1.00271744,"ECCENTRICITY":0.00044348,"INCLINATION":5.3946,"RA_OF_ASC_NODE":355.9239,"ARG_OF_PERICENTER":0.8236,"MEAN_ANOMALY":217.2734,"EPHEMERIS_TYPE":0,"CLASSIFICATION_TYPE":"U","NORAD_CAT_ID":45245,"ELEMENT_SET_NO":999,"REV_AT_EPOCH":2228,"BSTAR":0,"MEAN_MOTION_DOT":-3.13e-6,"MEAN_MOTION_DDOT":0},{"OBJECT_NAME":"GEO-KOMPSAT-2B","OBJECT_ID":"2020-013B","EPOCH":"2026-03-14T17:40:33.875616","MEAN_MOTION":1.00270893,"ECCENTRICITY":0.00014357,"INCLINATION":0.0448,"RA_OF_ASC_NODE":328.029,"ARG_OF_PERICENTER":1.0664,"MEAN_ANOMALY":236.6484,"EPHEMERIS_TYPE":0,"CLASSIFICATION_TYPE":"U","NORAD_CAT_ID":45246,"ELEMENT_SET_NO":999,"REV_AT_EPOCH":2233,"BSTAR":0,"MEAN_MOTION_DOT":-3.45e-6,"MEAN_MOTION_DDOT":0},{"OBJECT_NAME":"BEIDOU-3 G2","OBJECT_ID":"2020-017A","EPOCH":"2026-03-14T22:34:54.623136","MEAN_MOTION":1.00272381,"ECCENTRICITY":0.00027339,"INCLINATION":2.6743,"RA_OF_ASC_NODE":45.7536,"ARG_OF_PERICENTER":323.3562,"MEAN_ANOMALY":222.2179,"EPHEMERIS_TYPE":0,"CLASSIFICATION_TYPE":"U","NORAD_CAT_ID":45344,"ELEMENT_SET_NO":999,"REV_AT_EPOCH":2231,"BSTAR":0,"MEAN_MOTION_DOT":-1.39e-6,"MEAN_MOTION_DDOT":0},{"OBJECT_NAME":"BEIDOU-3 G3","OBJECT_ID":"2020-040A","EPOCH":"2026-03-14T22:43:31.296864","MEAN_MOTION":1.00270508,"ECCENTRICITY":0.00048394,"INCLINATION":2.2142,"RA_OF_ASC_NODE":67.1491,"ARG_OF_PERICENTER":325.3883,"MEAN_ANOMALY":231.4219,"EPHEMERIS_TYPE":0,"CLASSIFICATION_TYPE":"U","NORAD_CAT_ID":45807,"ELEMENT_SET_NO":999,"REV_AT_EPOCH":2112,"BSTAR":0,"MEAN_MOTION_DOT":-3.53e-6,"MEAN_MOTION_DDOT":0},{"OBJECT_NAME":"APSTAR-6D","OBJECT_ID":"2020-045A","EPOCH":"2026-03-13T00:37:39.734112","MEAN_MOTION":1.00276516,"ECCENTRICITY":0.00029943,"INCLINATION":0.0395,"RA_OF_ASC_NODE":107.0519,"ARG_OF_PERICENTER":327.134,"MEAN_ANOMALY":239.93,"EPHEMERIS_TYPE":0,"CLASSIFICATION_TYPE":"U","NORAD_CAT_ID":45863,"ELEMENT_SET_NO":999,"REV_AT_EPOCH":2089,"BSTAR":0,"MEAN_MOTION_DOT":-3.17e-6,"MEAN_MOTION_DDOT":0},{"OBJECT_NAME":"KOREASAT 116","OBJECT_ID":"2020-048A","EPOCH":"2026-03-14T21:02:33.479232","MEAN_MOTION":1.00275107,"ECCENTRICITY":9.033e-5,"INCLINATION":0.0202,"RA_OF_ASC_NODE":251.5904,"ARG_OF_PERICENTER":102.7181,"MEAN_ANOMALY":249.9976,"EPHEMERIS_TYPE":0,"CLASSIFICATION_TYPE":"U","NORAD_CAT_ID":45920,"ELEMENT_SET_NO":999,"REV_AT_EPOCH":2069,"BSTAR":0,"MEAN_MOTION_DOT":-3.63e-6,"MEAN_MOTION_DDOT":0},{"OBJECT_NAME":"EXPRESS 103","OBJECT_ID":"2020-053A","EPOCH":"2026-03-14T14:06:09.981792","MEAN_MOTION":1.00271619,"ECCENTRICITY":2.282e-5,"INCLINATION":0.0184,"RA_OF_ASC_NODE":259.3554,"ARG_OF_PERICENTER":167.4219,"MEAN_ANOMALY":53.4654,"EPHEMERIS_TYPE":0,"CLASSIFICATION_TYPE":"U","NORAD_CAT_ID":45985,"ELEMENT_SET_NO":999,"REV_AT_EPOCH":2070,"BSTAR":0,"MEAN_MOTION_DOT":-2.81e-6,"MEAN_MOTION_DDOT":0},{"OBJECT_NAME":"EXPRESS 80","OBJECT_ID":"2020-053B","EPOCH":"2026-03-14T07:12:21.733920","MEAN_MOTION":1.00269879,"ECCENTRICITY":0.00012755,"INCLINATION":0.0196,"RA_OF_ASC_NODE":186.1346,"ARG_OF_PERICENTER":85.0672,"MEAN_ANOMALY":88.7836,"EPHEMERIS_TYPE":0,"CLASSIFICATION_TYPE":"U","NORAD_CAT_ID":45986,"ELEMENT_SET_NO":999,"REV_AT_EPOCH":2068,"BSTAR":0,"MEAN_MOTION_DOT":0,"MEAN_MOTION_DDOT":0}]
